QIANFAN-101             
1 66043U 25233L   25317.62891566  .00000806  00000+0  32717-3 0  9991
2 66043  88.9960  65.3804 0016576 126.1772 234.0958 14.26646607  3891
QIANFAN-102             
1 66044U 25233M   25317.56383801  .00001595  00000+0  67041-3 0  9997
2 66044  88.9959  65.3897 0016997 128.2937 231.9787 14.25342837  3887
QIANFAN-103             
1 66045U 25233N   25317.63465481  .00001223  00000+0  52942-3 0  9993
2 66045  88.9950  65.3817 0016198 125.9071 234.3627 14.23689194  3896
QIANFAN-104             
1 66046U 25233P   25317.56307337  .00001572  00000+0  66008-3 0  9996
2 66046  88.9966  65.3904 0016346 129.3226 230.9419 14.25373866  3884
QIANFAN-105             
1 66047U 25233Q   25317.56312469  .00000687  00000+0  29078-3 0  9991
2 66047  88.9956  65.3890 0016409 128.4057 231.8612 14.24307955  3880
QIANFAN-106             
1 66048U 25233R   25317.56300505  .00001451  00000+0  61878-3 0  9994
2 66048  88.9956  65.3885 0016361 128.5197 231.7465 14.24563335  3889
QIANFAN-107             
1 66049U 25233S   25317.56227350  .00001504  00000+0  63446-3 0  9993
2 66049  88.9958  65.3879 0017076 127.4003 232.8747 14.25125428  3886
QIANFAN-108             
1 66050U 25233T   25317.63285367  .00000997  00000+0  42579-3 0  9994
2 66050  88.9963  65.3822 0017128 127.5768 232.6983 14.24225409  3899
CZ-6A R/B               
1 66051U 25233U   25317.67841355  .00000863  00000+0  17892-3 0  9996
2 66051  89.0298  65.2896 0084795  26.5475 334.0040 14.57025080  3980
2025-234A               
1 66053U 25234A   25317.63194119  .00057022  00000+0  23871-2 0  9996
2 66053  97.4604  23.1083 0014611 196.2513 163.8257 15.23249461  3887
2025-234B               
1 66054U 25234B   25317.64853699  .00014182  00000+0  63272-3 0  9993
2 66054  97.5034  23.2232 0014763 187.0049 173.0982 15.21401903  3880
2025-234C               
1 66055U 25234C   25317.64643222  .00013511  00000+0  60062-3 0  9992
2 66055  97.4556  23.0729 0015371 189.0296 171.0665 15.21526971  3889
